IXPE                    
1 49954U 21121A   24165.58334491  .00003946  00000+0  25656-3 0  9991
2 49954   0.2311  60.0622 0009429 229.4865 118.0819 14.98196179  5745
